[{"OBJECT_NAME":"STARLINK-5383","OBJECT_ID":"2022-177H","EPOCH":"2026-03-09T05:03:48.190752","MEAN_MOTION":15.02531322,"ECCENTRICITY":0.00012188,"INCLINATION":43.0016,"RA_OF_ASC_NODE":135.8997,"ARG_OF_PERICENTER":263.6559,"MEAN_ANOMALY":96.4144,"EPHEMERIS_TYPE":0,"CLASSIFICATION_TYPE":"U","NORAD_CAT_ID":54827,"ELEMENT_SET_NO":999,"REV_AT_EPOCH":17689,"BSTAR":-3.668191e-6,"MEAN_MOTION_DOT":-2.53e-6,"MEAN_MOTION_DDOT":0},{"OBJECT_NAME":"DELTA 1 DEB","OBJECT_ID":"1978-026BU","EPOCH":"2026-03-09T11:22:20.910432","MEAN_MOTION":14.96481719,"ECCENTRICITY":0.00669454,"INCLINATION":98.7967,"RA_OF_ASC_NODE":254.5698,"ARG_OF_PERICENTER":166.8222,"MEAN_ANOMALY":193.4765,"EPHEMERIS_TYPE":0,"CLASSIFICATION_TYPE":"U","NORAD_CAT_ID":12227,"ELEMENT_SET_NO":999,"REV_AT_EPOCH":38498,"BSTAR":0.0006297912,"MEAN_MOTION_DOT":7.412e-5,"MEAN_MOTION_DDOT":0}]
